$$SOE
2461295.500000000, A.D. 2026-Sep-12 00:00:00.0000, -4.218906341177545E+08, 5.375069222733982E+07, -1.395940000162024E+07,
2461302.500000000, A.D. 2026-Sep-19 00:00:00.0000, -4.224788904122753E+08, 4.325914921337030E+07, -1.376757890890196E+07,
2461309.500000000, A.D. 2026-Sep-26 00:00:00.0000, -4.227998203673566E+08, 3.274032879720416E+07, -1.356704103178732E+07,
2461316.500000000, A.D. 2026-Oct-03 00:00:00.0000, -4.228520321002780E+08, 2.220078933523889E+07, -1.335787520567019E+07,
2461323.500000000, A.D. 2026-Oct-10 00:00:00.0000, -4.226342785944240E+08, 1.164716023289205E+07, -1.314017615425163E+07,
2461330.500000000, A.D. 2026-Oct-17 00:00:00.0000, -4.221454611825953E+08, 1.086139773408013E+06, -1.291404454417485E+07,
2461337.500000000, A.D. 2026-Oct-24 00:00:00.0000, -4.213846330760824E+08, -9.475507298140168E+06, -1.267958704538734E+07,
2461344.500000000, A.D. 2026-Oct-31 00:00:00.0000, -4.203510028355728E+08, -2.003095250871326E+07, -1.243691641130634E+07,
2461351.500000000, A.D. 2026-Nov-07 00:00:00.0000, -4.190439374391660E+08, -3.057330664122422E+07, -1.218615160334064E+07,
2461358.500000000, A.D. 2026-Nov-14 00:00:00.0000, -4.174629647400707E+08, -4.109562208732365E+07, -1.192741790509454E+07,
2461365.500000000, A.D. 2026-Nov-21 00:00:00.0000, -4.156077771185622E+08, -5.159089389390084E+07, -1.166084680379374E+07,
2461372.500000000, A.D. 2026-Nov-28 00:00:00.0000, -4.134782373204108E+08, -6.205206251857208E+07, -1.138657579286648E+07,
2461379.500000000, A.D. 2026-Dec-05 00:00:00.0000, -4.110743828571841E+08, -7.247201895609860E+07, -1.110474848086549E+07,
2461386.500000000, A.D. 2026-Dec-12 00:00:00.0000, -4.083964287947714E+08, -8.284360912873808E+07, -1.081551476668020E+07,
2461393.500000000, A.D. 2026-Dec-19 00:00:00.0000, -4.054447708061196E+08, -9.315963753962459E+07, -1.051903090649090E+07,
2461400.500000000, A.D. 2026-Dec-26 00:00:00.0000, -4.022199886210492E+08, -1.034128710642539E+08, -1.021545952989145E+07,
2461407.500000000, A.D. 2027-Jan-02 00:00:00.0000, -3.987228495894629E+08, -1.135960430772044E+08, -9.904969645801768E+06,
2461414.500000000, A.D. 2027-Jan-09 00:00:00.0000, -3.949543122327992E+08, -1.237018578989031E+08, -9.587736646844469E+06,
2461421.500000000, A.D. 2027-Jan-16 00:00:00.0000, -3.909155297394950E+08, -1.337229955580567E+08, -9.263942314244822E+06,
2461428.500000000, A.D. 2027-Jan-23 00:00:00.0000, -3.866078533492970E+08, -1.436521169132760E+08, -8.933774830275618E+06,
2461435.500000000, A.D. 2027-Jan-30 00:00:00.0000, -3.820328354290608E+08, -1.534818691844345E+08, -8.597428818919837E+06,
2461442.500000000, A.D. 2027-Feb-06 00:00:00.0000, -3.771922318041927E+08, -1.632048915548702E+08, -8.255105425344206E+06,
2461449.500000000, A.D. 2027-Feb-13 00:00:00.0000, -3.720880037920479E+08, -1.728138196246424E+08, -7.907012291557856E+06,
2461456.500000000, A.D. 2027-Feb-20 00:00:00.0000, -3.667223222844263E+08, -1.823012895066347E+08, -7.553363275487542E+06,
2461463.500000000, A.D. 2027-Feb-27 00:00:00.0000, -3.610975724675316E+08, -1.916599447826495E+08, -7.194378303986683E+06,
2461470.500000000, A.D. 2027-Mar-06 00:00:00.0000, -3.552163561484697E+08, -2.008824444005736E+08, -6.830283479542986E+06,
2461477.500000000, A.D. 2027-Mar-13 00:00:00.0000, -3.490814932758130E+08, -2.099614694641258E+08, -6.461311126369044E+06,
2461484.500000000, A.D. 2027-Mar-20 00:00:00.0000, -3.426960237697894E+08, -2.188897297488110E+08, -6.087699740401477E+06,
2461491.500000000, A.D. 2027-Mar-27 00:00:00.0000, -3.360632094458439E+08, -2.276599704911311E+08, -5.709693906532913E+06,
2461498.500000000, A.D. 2027-Apr-03 00:00:00.0000, -3.291865358144156E+08, -2.362649794956778E+08, -5.327544205404103E+06,
2461505.500000000, A.D. 2027-Apr-10 00:00:00.0000, -3.220697136806951E+08, -2.446975945320346E+08, -4.941507113067746E+06,
2461512.500000000, A.D. 2027-Apr-17 00:00:00.0000, -3.147166805059921E+08, -2.529507110290791E+08, -4.551844896160737E+06,
2461519.500000000, A.D. 2027-Apr-24 00:00:00.0000, -3.071316014341661E+08, -2.610172901208674E+08, -4.158825514378741E+06,
2461526.500000000, A.D. 2027-May-01 00:00:00.0000, -2.993188696655522E+08, -2.688903670071049E+08, -3.762722554955378E+06,
2461533.500000000, A.D. 2027-May-08 00:00:00.0000, -2.912831058524690E+08, -2.765630588693050E+08, -3.363815165703997E+06,
2461540.500000000, A.D. 2027-May-15 00:00:00.0000, -2.830291579937223E+08, -2.840285713774778E+08, -2.962387771008328E+06,
2461547.500000000, A.D. 2027-May-22 00:00:00.0000, -2.745621033721875E+08, -2.912802063675086E+08, -2.558729638943031E+06,
2461554.500000000, A.D. 2027-May-29 00:00:00.0000, -2.658872491622809E+08, -2.983113721474124E+08, -2.153134727241069E+06,
2461561.500000000, A.D. 2027-Jun-05 00:00:00.0000, -2.570101308079225E+08, -3.051155932891617E+08, -1.745901633052245E+06,
2461568.500000000, A.D. 2027-Jun-12 00:00:00.0000, -2.479365101642300E+08, -3.116865194592156E+08, -1.337333426646516E+06,
2461575.500000000, A.D. 2027-Jun-19 00:00:00.0000, -2.386723737192800E+08, -3.180179342051545E+08, -9.277374147520214E+05,
2461582.500000000, A.D. 2027-Jun-26 00:00:00.0000, -2.292239306018361E+08, -3.241037639409731E+08, -5.174248803402334E+05,
2461589.500000000, A.D. 2027-Jul-03 00:00:00.0000, -2.195976102292091E+08, -3.299380871034986E+08, -1.067108102361858E+05,
2461596.500000000, A.D. 2027-Jul-10 00:00:00.0000, -2.098000595463229E+08, -3.355151434509010E+08, 3.040863869115412E+05,
2461603.500000000, A.D. 2027-Jul-17 00:00:00.0000, -1.998381398087327E+08, -3.408293435199476E+08, 7.146451660231054E+05,
2461610.500000000, A.D. 2027-Jul-24 00:00:00.0000, -1.897189227429563E+08, -3.458752782808391E+08, 1.124641115064278E+06,
2461617.500000000, A.D. 2027-Jul-31 00:00:00.0000, -1.794496856633939E+08, -3.506477287288429E+08, 1.533747190221772E+06,
2461624.500000000, A.D. 2027-Aug-07 00:00:00.0000, -1.690379057384880E+08, -3.551416742342941E+08, 1.941634029280812E+06,
2461631.500000000, A.D. 2027-Aug-14 00:00:00.0000, -1.584912556999876E+08, -3.593522998757725E+08, 2.347970533289671E+06,
2461638.500000000, A.D. 2027-Aug-21 00:00:00.0000, -1.478176003707816E+08, -3.632750060920755E+08, 2.752424384297132E+06,
2461645.500000000, A.D. 2027-Aug-28 00:00:00.0000, -1.370249905768817E+08, -3.669054194227123E+08, 3.154662282176644E+06,
2461652.500000000, A.D. 2027-Sep-04 00:00:00.0000, -1.261216556244460E+08, -3.702394018064598E+08, 3.554350212801576E+06,
2461659.500000000, A.D. 2027-Sep-11 00:00:00.0000, -1.151159957385701E+08, -3.732730590689365E+08, 3.951153820823461E+06,
2461666.500000000, A.D. 2027-Sep-18 00:00:00.0000, -1.040165743336077E+08, -3.760027492177268E+08, 4.344738820823863E+06,
2461673.500000000, A.D. 2027-Sep-25 00:00:00.0000, -9.283210989063920E+07, -3.784250905904865E+08, 4.734771418395057E+06,
2461680.500000000, A.D. 2027-Oct-02 00:00:00.0000, -8.157146737318420E+07, -3.805369697968763E+08, 5.120918735234559E+06,
2461687.500000000, A.D. 2027-Oct-09 00:00:00.0000, -7.024364916756618E+07, -3.823355494286776E+08, 5.502849234600127E+06,
2461694.500000000, A.D. 2027-Oct-16 00:00:00.0000, -5.885778549741138E+07, -3.838182755634114E+08, 5.880233135854483E+06,
2461701.500000000, A.D. 2027-Oct-23 00:00:00.0000, -4.742312406865942E+07, -3.849828850364967E+08, 6.252742792936027E+06,
2461708.500000000, A.D. 2027-Oct-30 00:00:00.0000, -3.594901858912648E+07, -3.858274118388820E+08, 6.620053051304936E+06,
2461715.500000000, A.D. 2027-Nov-06 00:00:00.0000, -2.444491734577509E+07, -3.863501914771105E+08, 6.981841780965507E+06,
2461722.500000000, A.D. 2027-Nov-13 00:00:00.0000, -1.292035384395240E+07, -3.865498653367523E+08, 7.337790596133947E+06,
2461729.500000000, A.D. 2027-Nov-20 00:00:00.0000, -1.384936624910055E+06, -3.864253872049795E+08, 7.687585314704686E+06,
2461736.500000000, A.D. 2027-Nov-27 00:00:00.0000, 1.015166333437892E+07, -3.859760289657265E+08, 8.030916249858573E+06,
2461743.500000000, A.D. 2027-Dec-04 00:00:00.0000, 2.167972558817524E+07, -3.852013845348482E+08, 8.367478593069211E+06,
2461750.500000000, A.D. 2027-Dec-11 00:00:00.0000, 3.318949297332931E+07, -3.841013729801844E+08, 8.696972859394267E+06,
2461757.500000000, A.D. 2027-Dec-18 00:00:00.0000, 4.467118438567046E+07, -3.826762411456362E+08, 9.019105341215253E+06,
2461764.500000000, A.D. 2027-Dec-25 00:00:00.0000, 5.611500769783994E+07, -3.809265657611058E+08, 9.333588555161238E+06,
2461771.500000000, A.D. 2028-Jan-01 00:00:00.0000, 6.751117282412471E+07, -3.788532550042843E+08, 9.640141678163737E+06,
$$EOE